{
  "norad_id": 59439,
  "name": "STARLINK-31708",
  "history": [
    {
      "epoch": "2026-05-05T03:02:05.454528Z",
      "apogee_km": 475.91302368455763,
      "perigee_km": 474.51151375910376,
      "latitude_deg": -1.420142313204392e-05,
      "longitude_deg": 110.74895378112234,
      "height_km": 476.1906481248757,
      "semi_major_axis_km": 6853.34926872183,
      "eccentricity": 0.00010225,
      "inclination_deg": 53.162,
      "raan_deg": 19.2776,
      "arg_perigee_deg": 96.5343,
      "mean_anomaly_deg": 263.5774,
      "mean_motion_rev_day": 15.30200938
    }
  ]
}